{"fetched_at":"2026-03-29T16:36:15Z","count":15609,"tles":[{"name":"STARLINK-35389","line1":"1 66434U 25259N   26087.90665090  .00016425  00000+0  60490-3 0  9993","line2":"2 66434  42.9995 165.5239 0000770 324.2287  35.8513 15.27587959 22430","category":"Starlink"}]}